GEOEYE 1                
1 33331U 08042A   26170.20129616  .00000352  00000+0  75040-4 0  9999
2 33331  98.1236 244.1070 0005330  64.7849 295.3906 14.64727379950447
GOES 14                 
1 35491U 09033A   26169.92281883 -.00000304  00000+0  00000+0 0  9998
2 35491   1.6955  83.0209 0001837  12.3121 284.8605  1.00110377  6606
GAOFEN-8                
1 40701U 15030A   26170.22371992  .00012100  00000+0  24956-3 0  9994
2 40701  97.6900   3.7148 0008888 179.0270 181.0998 15.46006946611764
GAOFEN-9 01             
1 40894U 15047A   26170.22186784  .00000761  00000+0  99563-4 0  9995
2 40894  97.6279 205.8243 0028512 131.4416 228.9254 14.82887107580493
GAOFEN-4                
1 41194U 15083A   26170.08655836 -.00000341  00000+0  00000+0 0  9990
2 41194   0.3635  83.8468 0004194 117.7547 202.5591  1.00274677 38543
GOES 16                 
1 41866U 16071A   26170.15932110 -.00000097  00000+0  00000+0 0  9993
2 41866   0.3473  85.5093 0000270 329.5861 164.9520  1.00271245 35127
GAOFEN-5 01             
1 43461U 18043A   26169.91136598  .00000252  00000+0  62008-4 0  9998
2 43461  98.4569 141.5337 0003028  80.5544 279.5998 14.60606556431943
GAOFEN-6                
1 43484U 18048A   26170.23960248  .00002184  00000+0  31971-3 0  9992
2 43484  97.9708 232.9610 0011955 159.4535 200.7158 14.76602093433697
GEO-KOMPSAT-2A          
1 43823U 18100A   26169.92030550 -.00000350  00000+0  00000+0 0  9995
2 43823   0.0487 155.6876 0001856 291.5734 279.4528  1.00269167 27648
GAOFEN-3 03             
1 52200U 22035A   26170.17225870  .00000029  00000+0  21915-4 0  9991
2 52200  98.4057 178.7242 0001345 100.4402 259.6939 14.42215305221138
