{
 "generated_at": "2026-06-19T09:28:30Z",
 "sources": [
  {
   "name": "CelesTrak",
   "url": "https://celestrak.org/NORAD/elements/",
   "license": "frei verfügbar; Attribution. Ursprünglich USSPACECOM/Space-Track."
  },
  {
   "name": "GCAT (J. McDowell, planet4589.org)",
   "url": "https://planet4589.org/space/gcat/",
   "license": "CC-BY 4.0"
  }
 ],
 "satellites": [
  {
   "norad": 52200,
   "name": "GAOFEN-3 03",
   "intl": "2022-035A",
   "group": "sar",
   "gcat": {
    "class": "C",
    "category": "IMG-R",
    "owner": "GWHYZ",
    "state": "CN"
   },
   "omm": {
    "OBJECT_NAME": "GAOFEN-3 03",
    "OBJECT_ID": "2022-035A",
    "EPOCH": "2026-06-19T04:08:03.151680",
    "MEAN_MOTION": 14.42215305,
    "ECCENTRICITY": 0.0001345,
    "INCLINATION": 98.4057,
    "RA_OF_ASC_NODE": 178.7242,
    "ARG_OF_PERICENTER": 100.4402,
    "MEAN_ANOMALY": 259.6939,
    "EPHEMERIS_TYPE": 0,
    "CLASSIFICATION_TYPE": "U",
    "NORAD_CAT_ID": 52200,
    "ELEMENT_SET_NO": 999,
    "REV_AT_EPOCH": 22113,
    "BSTAR": 0.000021915,
    "MEAN_MOTION_DOT": 2.9e-7,
    "MEAN_MOTION_DDOT": 0
   }
  },
  {
   "norad": 41194,
   "name": "GAOFEN-4",
   "intl": "2015-083A",
   "group": "resource",
   "gcat": {
    "class": "C",
    "category": "IMG",
    "owner": "CNSAS",
    "state": "CN"
   },
   "omm": {
    "OBJECT_NAME": "GAOFEN-4",
    "OBJECT_ID": "2015-083A",
    "EPOCH": "2026-06-19T02:04:38.642304",
    "MEAN_MOTION": 1.00274677,
    "ECCENTRICITY": 0.0004194,
    "INCLINATION": 0.3635,
    "RA_OF_ASC_NODE": 83.8468,
    "ARG_OF_PERICENTER": 117.7547,
    "MEAN_ANOMALY": 202.5591,
    "EPHEMERIS_TYPE": 0,
    "CLASSIFICATION_TYPE": "U",
    "NORAD_CAT_ID": 41194,
    "ELEMENT_SET_NO": 999,
    "REV_AT_EPOCH": 3854,
    "BSTAR": 0,
    "MEAN_MOTION_DOT": -0.00000341,
    "MEAN_MOTION_DDOT": 0
   }
  },
  {
   "norad": 43461,
   "name": "GAOFEN-5 01",
   "intl": "2018-043A",
   "group": "resource",
   "gcat": {
    "class": null,
    "category": null,
    "owner": null,
    "state": null
   },
   "omm": {
    "OBJECT_NAME": "GAOFEN-5 01",
    "OBJECT_ID": "2018-043A",
    "EPOCH": "2026-06-18T21:52:22.020672",
    "MEAN_MOTION": 14.60606556,
    "ECCENTRICITY": 0.0003028,
    "INCLINATION": 98.4569,
    "RA_OF_ASC_NODE": 141.5337,
    "ARG_OF_PERICENTER": 80.5544,
    "MEAN_ANOMALY": 279.5998,
    "EPHEMERIS_TYPE": 0,
    "CLASSIFICATION_TYPE": "U",
    "NORAD_CAT_ID": 43461,
    "ELEMENT_SET_NO": 999,
    "REV_AT_EPOCH": 43194,
    "BSTAR": 0.000062008,
    "MEAN_MOTION_DOT": 0.00000252,
    "MEAN_MOTION_DDOT": 0
   }
  },
  {
   "norad": 43484,
   "name": "GAOFEN-6",
   "intl": "2018-048A",
   "group": "resource",
   "gcat": {
    "class": "C",
    "category": "IMG",
    "owner": "CNSAS",
    "state": "CN"
   },
   "omm": {
    "OBJECT_NAME": "GAOFEN-6",
    "OBJECT_ID": "2018-048A",
    "EPOCH": "2026-06-19T05:45:01.654272",
    "MEAN_MOTION": 14.76602093,
    "ECCENTRICITY": 0.0011955,
    "INCLINATION": 97.9708,
    "RA_OF_ASC_NODE": 232.961,
    "ARG_OF_PERICENTER": 159.4535,
    "MEAN_ANOMALY": 200.7158,
    "EPHEMERIS_TYPE": 0,
    "CLASSIFICATION_TYPE": "U",
    "NORAD_CAT_ID": 43484,
    "ELEMENT_SET_NO": 999,
    "REV_AT_EPOCH": 43369,
    "BSTAR": 0.00031971,
    "MEAN_MOTION_DOT": 0.00002184,
    "MEAN_MOTION_DDOT": 0
   }
  },
  {
   "norad": 40701,
   "name": "GAOFEN-8",
   "intl": "2015-030A",
   "group": "resource",
   "gcat": {
    "class": "D",
    "category": "IMG",
    "owner": "ZZB",
    "state": "CN"
   },
   "omm": {
    "OBJECT_NAME": "GAOFEN-8",
    "OBJECT_ID": "2015-030A",
    "EPOCH": "2026-06-19T05:22:09.401088",
    "MEAN_MOTION": 15.46006946,
    "ECCENTRICITY": 0.0008888,
    "INCLINATION": 97.69,
    "RA_OF_ASC_NODE": 3.7148,
    "ARG_OF_PERICENTER": 179.027,
    "MEAN_ANOMALY": 181.0998,
    "EPHEMERIS_TYPE": 0,
    "CLASSIFICATION_TYPE": "U",
    "NORAD_CAT_ID": 40701,
    "ELEMENT_SET_NO": 999,
    "REV_AT_EPOCH": 61176,
    "BSTAR": 0.00024956,
    "MEAN_MOTION_DOT": 0.000121,
    "MEAN_MOTION_DDOT": 0
   }
  },
  {
   "norad": 40894,
   "name": "GAOFEN-9 01",
   "intl": "2015-047A",
   "group": "resource",
   "gcat": {
    "class": null,
    "category": null,
    "owner": null,
    "state": null
   },
   "omm": {
    "OBJECT_NAME": "GAOFEN-9 01",
    "OBJECT_ID": "2015-047A",
    "EPOCH": "2026-06-19T05:19:29.381376",
    "MEAN_MOTION": 14.82887107,
    "ECCENTRICITY": 0.0028512,
    "INCLINATION": 97.6279,
    "RA_OF_ASC_NODE": 205.8243,
    "ARG_OF_PERICENTER": 131.4416,
    "MEAN_ANOMALY": 228.9254,
    "EPHEMERIS_TYPE": 0,
    "CLASSIFICATION_TYPE": "U",
    "NORAD_CAT_ID": 40894,
    "ELEMENT_SET_NO": 999,
    "REV_AT_EPOCH": 58049,
    "BSTAR": 0.000099563,
    "MEAN_MOTION_DOT": 0.00000761,
    "MEAN_MOTION_DDOT": 0
   }
  },
  {
   "norad": 43823,
   "name": "GEO-KOMPSAT-2A",
   "intl": "2018-100A",
   "group": "weather",
   "gcat": {
    "class": "C",
    "category": "MET",
    "owner": "KARI",
    "state": "KR"
   },
   "omm": {
    "OBJECT_NAME": "GEO-KOMPSAT-2A",
    "OBJECT_ID": "2018-100A",
    "EPOCH": "2026-06-18T22:05:14.395200",
    "MEAN_MOTION": 1.00269167,
    "ECCENTRICITY": 0.0001856,
    "INCLINATION": 0.0487,
    "RA_OF_ASC_NODE": 155.6876,
    "ARG_OF_PERICENTER": 291.5734,
    "MEAN_ANOMALY": 279.4528,
    "EPHEMERIS_TYPE": 0,
    "CLASSIFICATION_TYPE": "U",
    "NORAD_CAT_ID": 43823,
    "ELEMENT_SET_NO": 999,
    "REV_AT_EPOCH": 2764,
    "BSTAR": 0,
    "MEAN_MOTION_DOT": -0.0000035,
    "MEAN_MOTION_DDOT": 0
   }
  },
  {
   "norad": 33331,
   "name": "GEOEYE 1",
   "intl": "2008-042A",
   "group": "resource",
   "gcat": {
    "class": null,
    "category": "IMG",
    "owner": "GEYE",
    "state": "US"
   },
   "omm": {
    "OBJECT_NAME": "GEOEYE 1",
    "OBJECT_ID": "2008-042A",
    "EPOCH": "2026-06-19T04:49:51.988224",
    "MEAN_MOTION": 14.64727379,
    "ECCENTRICITY": 0.000533,
    "INCLINATION": 98.1236,
    "RA_OF_ASC_NODE": 244.107,
    "ARG_OF_PERICENTER": 64.7849,
    "MEAN_ANOMALY": 295.3906,
    "EPHEMERIS_TYPE": 0,
    "CLASSIFICATION_TYPE": "U",
    "NORAD_CAT_ID": 33331,
    "ELEMENT_SET_NO": 999,
    "REV_AT_EPOCH": 95044,
    "BSTAR": 0.00007504,
    "MEAN_MOTION_DOT": 0.00000352,
    "MEAN_MOTION_DDOT": 0
   }
  },
  {
   "norad": 35491,
   "name": "GOES 14",
   "intl": "2009-033A",
   "group": "weather",
   "gcat": {
    "class": "C",
    "category": "MET",
    "owner": "NOAA",
    "state": "US"
   },
   "omm": {
    "OBJECT_NAME": "GOES 14",
    "OBJECT_ID": "2009-033A",
    "EPOCH": "2026-06-18T22:08:51.546912",
    "MEAN_MOTION": 1.00110377,
    "ECCENTRICITY": 0.0001837,
    "INCLINATION": 1.6955,
    "RA_OF_ASC_NODE": 83.0209,
    "ARG_OF_PERICENTER": 12.3121,
    "MEAN_ANOMALY": 284.8605,
    "EPHEMERIS_TYPE": 0,
    "CLASSIFICATION_TYPE": "U",
    "NORAD_CAT_ID": 35491,
    "ELEMENT_SET_NO": 999,
    "REV_AT_EPOCH": 660,
    "BSTAR": 0,
    "MEAN_MOTION_DOT": -0.00000304,
    "MEAN_MOTION_DDOT": 0
   }
  },
  {
   "norad": 41866,
   "name": "GOES 16",
   "intl": "2016-071A",
   "group": "weather",
   "gcat": {
    "class": "C",
    "category": "MET",
    "owner": "NOAA",
    "state": "US"
   },
   "omm": {
    "OBJECT_NAME": "GOES 16",
    "OBJECT_ID": "2016-071A",
    "EPOCH": "2026-06-19T03:49:25.343040",
    "MEAN_MOTION": 1.00271245,
    "ECCENTRICITY": 0.000027,
    "INCLINATION": 0.3473,
    "RA_OF_ASC_NODE": 85.5093,
    "ARG_OF_PERICENTER": 329.5861,
    "MEAN_ANOMALY": 164.952,
    "EPHEMERIS_TYPE": 0,
    "CLASSIFICATION_TYPE": "U",
    "NORAD_CAT_ID": 41866,
    "ELEMENT_SET_NO": 999,
    "REV_AT_EPOCH": 3512,
    "BSTAR": 0,
    "MEAN_MOTION_DOT": -9.7e-7,
    "MEAN_MOTION_DDOT": 0
   }
  }
 ]
}
